CCSDS_OMM_VERS = 2.0
CREATION_DATE  = 
ORIGINATOR     = 

OBJECT_NAME    = HULIANWANG DIGUI-111
OBJECT_ID      = 2025-285G
CENTER_NAME    = EARTH
REF_FRAME      = TEME
TIME_SYSTEM    = UTC
MEAN_ELEMENT_THEORY = SGP/SGP4

EPOCH          = 2025-12-17T16:15:11.056320
MEAN_MOTION    = 14.03630834
ECCENTRICITY   = .0006692
INCLINATION    = 50.0128
RA_OF_ASC_NODE = 97.0966
ARG_OF_PERICENTER = 313.3114
MEAN_ANOMALY   = 46.7232

EPHEMERIS_TYPE = 0
CLASSIFICATION_TYPE = U
NORAD_CAT_ID   = 66921
ELEMENT_SET_NO = 999
REV_AT_EPOCH   = 160
BSTAR          = -.14381E-4
MEAN_MOTION_DOT = -.174E-5
MEAN_MOTION_DDOT = 0

CCSDS_OMM_VERS = 2.0
CREATION_DATE  = 
ORIGINATOR     = 

OBJECT_NAME    = HULIANWANG DIGUI-112
OBJECT_ID      = 2025-285H
CENTER_NAME    = EARTH
REF_FRAME      = TEME
TIME_SYSTEM    = UTC
MEAN_ELEMENT_THEORY = SGP/SGP4

EPOCH          = 2025-12-17T14:31:17.675616
MEAN_MOTION    = 14.03790869
ECCENTRICITY   = .00066746
INCLINATION    = 50.0138
RA_OF_ASC_NODE = 97.3497
ARG_OF_PERICENTER = 324.7337
MEAN_ANOMALY   = 35.3126

EPHEMERIS_TYPE = 0
CLASSIFICATION_TYPE = U
NORAD_CAT_ID   = 66922
ELEMENT_SET_NO = 999
REV_AT_EPOCH   = 159
BSTAR          = .2748042E-5
MEAN_MOTION_DOT = -.147E-5
MEAN_MOTION_DDOT = 0

CCSDS_OMM_VERS = 2.0
CREATION_DATE  = 
ORIGINATOR     = 

OBJECT_NAME    = HULIANWANG DIGUI-113
OBJECT_ID      = 2025-285J
CENTER_NAME    = EARTH
REF_FRAME      = TEME
TIME_SYSTEM    = UTC
MEAN_ELEMENT_THEORY = SGP/SGP4

EPOCH          = 2025-12-17T16:12:33.551712
MEAN_MOTION    = 14.04002193
ECCENTRICITY   = .0005229
INCLINATION    = 50.0098
RA_OF_ASC_NODE = 97.0805
ARG_OF_PERICENTER = 313.3794
MEAN_ANOMALY   = 46.6674

EPHEMERIS_TYPE = 0
CLASSIFICATION_TYPE = U
NORAD_CAT_ID   = 66923
ELEMENT_SET_NO = 999
REV_AT_EPOCH   = 160
BSTAR          = .85151E-4
MEAN_MOTION_DOT = -.16E-6
MEAN_MOTION_DDOT = 0

CCSDS_OMM_VERS = 2.0
CREATION_DATE  = 
ORIGINATOR     = 

OBJECT_NAME    = CZ-8A R/B
OBJECT_ID      = 2025-285K
CENTER_NAME    = EARTH
REF_FRAME      = TEME
TIME_SYSTEM    = UTC
MEAN_ELEMENT_THEORY = SGP/SGP4

EPOCH          = 2025-12-17T13:13:49.772064
MEAN_MOTION    = 14.30503728
ECCENTRICITY   = .01192803
INCLINATION    = 50.0072
RA_OF_ASC_NODE = 95.6730
ARG_OF_PERICENTER = 123.7086
MEAN_ANOMALY   = 237.5268

EPHEMERIS_TYPE = 0
CLASSIFICATION_TYPE = U
NORAD_CAT_ID   = 66924
ELEMENT_SET_NO = 999
REV_AT_EPOCH   = 161
BSTAR          = .5260353E-4
MEAN_MOTION_DOT = -.18E-6
MEAN_MOTION_DDOT = 0

CCSDS_OMM_VERS = 2.0
CREATION_DATE  = 
ORIGINATOR     = 

OBJECT_NAME    = STARLINK-35945
OBJECT_ID      = 2025-286A
CENTER_NAME    = EARTH
REF_FRAME      = TEME
TIME_SYSTEM    = UTC
MEAN_ELEMENT_THEORY = SGP/SGP4

EPOCH          = 2025-12-17T14:00:03.000384
MEAN_MOTION    = 15.85391992
ECCENTRICITY   = .00009389
INCLINATION    = 53.1564
RA_OF_ASC_NODE = 26.1162
ARG_OF_PERICENTER = 69.8031
MEAN_ANOMALY   = 86.9100

EPHEMERIS_TYPE = 0
CLASSIFICATION_TYPE = U
NORAD_CAT_ID   = 66925
ELEMENT_SET_NO = 999
REV_AT_EPOCH   = 277
BSTAR          = -.54127324E-2
MEAN_MOTION_DOT = -.1180882E-1
MEAN_MOTION_DDOT = 0

CCSDS_OMM_VERS = 2.0
CREATION_DATE  = 
ORIGINATOR     = 

OBJECT_NAME    = STARLINK-35942
OBJECT_ID      = 2025-286B
CENTER_NAME    = EARTH
REF_FRAME      = TEME
TIME_SYSTEM    = UTC
MEAN_ELEMENT_THEORY = SGP/SGP4

EPOCH          = 2025-12-17T14:00:03.000384
MEAN_MOTION    = 15.85446023
ECCENTRICITY   = .00008023
INCLINATION    = 53.1563
RA_OF_ASC_NODE = 26.1065
ARG_OF_PERICENTER = 71.4394
MEAN_ANOMALY   = 89.8465

EPHEMERIS_TYPE = 0
CLASSIFICATION_TYPE = U
NORAD_CAT_ID   = 66926
ELEMENT_SET_NO = 999
REV_AT_EPOCH   = 277
BSTAR          = -.56259881E-2
MEAN_MOTION_DOT = -.1225037E-1
MEAN_MOTION_DDOT = 0

CCSDS_OMM_VERS = 2.0
CREATION_DATE  = 
ORIGINATOR     = 

OBJECT_NAME    = STARLINK-35943
OBJECT_ID      = 2025-286C
CENTER_NAME    = EARTH
REF_FRAME      = TEME
TIME_SYSTEM    = UTC
MEAN_ELEMENT_THEORY = SGP/SGP4

EPOCH          = 2025-12-17T14:00:03.000384
MEAN_MOTION    = 15.85477908
ECCENTRICITY   = .00009761
INCLINATION    = 53.1564
RA_OF_ASC_NODE = 26.1024
ARG_OF_PERICENTER = 65.5485
MEAN_ANOMALY   = 97.7808

EPHEMERIS_TYPE = 0
CLASSIFICATION_TYPE = U
NORAD_CAT_ID   = 66927
ELEMENT_SET_NO = 999
REV_AT_EPOCH   = 277
BSTAR          = -.57158619E-2
MEAN_MOTION_DOT = -.1244205E-1
MEAN_MOTION_DDOT = 0

CCSDS_OMM_VERS = 2.0
CREATION_DATE  = 
ORIGINATOR     = 

OBJECT_NAME    = STARLINK-35944
OBJECT_ID      = 2025-286D
CENTER_NAME    = EARTH
REF_FRAME      = TEME
TIME_SYSTEM    = UTC
MEAN_ELEMENT_THEORY = SGP/SGP4

EPOCH          = 2025-12-17T14:00:03.000384
MEAN_MOTION    = 15.85416143
ECCENTRICITY   = .00009008
INCLINATION    = 53.1563
RA_OF_ASC_NODE = 26.1108
ARG_OF_PERICENTER = 68.9564
MEAN_ANOMALY   = 90.2454

EPHEMERIS_TYPE = 0
CLASSIFICATION_TYPE = U
NORAD_CAT_ID   = 66928
ELEMENT_SET_NO = 999
REV_AT_EPOCH   = 277
BSTAR          = -.55428317E-2
MEAN_MOTION_DOT = -.1207404E-1
MEAN_MOTION_DDOT = 0

CCSDS_OMM_VERS = 2.0
CREATION_DATE  = 
ORIGINATOR     = 

OBJECT_NAME    = STARLINK-36169
OBJECT_ID      = 2025-286E
CENTER_NAME    = EARTH
REF_FRAME      = TEME
TIME_SYSTEM    = UTC
MEAN_ELEMENT_THEORY = SGP/SGP4

EPOCH          = 2025-12-17T14:00:03.000384
MEAN_MOTION    = 15.85502079
ECCENTRICITY   = .00010223
INCLINATION    = 53.1562
RA_OF_ASC_NODE = 26.0976
ARG_OF_PERICENTER = 65.0733
MEAN_ANOMALY   = 100.4708

EPHEMERIS_TYPE = 0
CLASSIFICATION_TYPE = U
NORAD_CAT_ID   = 66929
ELEMENT_SET_NO = 999
REV_AT_EPOCH   = 277
BSTAR          = -.58098525E-2
MEAN_MOTION_DOT = -.1263655E-1
MEAN_MOTION_DDOT = 0

CCSDS_OMM_VERS = 2.0
CREATION_DATE  = 
ORIGINATOR     = 

OBJECT_NAME    = STARLINK-36206
OBJECT_ID      = 2025-286F
CENTER_NAME    = EARTH
REF_FRAME      = TEME
TIME_SYSTEM    = UTC
MEAN_ELEMENT_THEORY = SGP/SGP4

EPOCH          = 2025-12-17T14:00:03.000384
MEAN_MOTION    = 15.85525247
ECCENTRICITY   = .00010015
INCLINATION    = 53.1560
RA_OF_ASC_NODE = 26.0932
ARG_OF_PERICENTER = 62.5395
MEAN_ANOMALY   = 105.0061

EPHEMERIS_TYPE = 0
CLASSIFICATION_TYPE = U
NORAD_CAT_ID   = 66930
ELEMENT_SET_NO = 999
REV_AT_EPOCH   = 277
BSTAR          = -.58394884E-2
MEAN_MOTION_DOT = -.1270613E-1
MEAN_MOTION_DDOT = 0

CCSDS_OMM_VERS = 2.0
CREATION_DATE  = 
ORIGINATOR     = 

OBJECT_NAME    = STARLINK-36130
OBJECT_ID      = 2025-286G
CENTER_NAME    = EARTH
REF_FRAME      = TEME
TIME_SYSTEM    = UTC
MEAN_ELEMENT_THEORY = SGP/SGP4

EPOCH          = 2025-12-17T14:00:03.000384
MEAN_MOTION    = 15.85546727
ECCENTRICITY   = .00009344
INCLINATION    = 53.1561
RA_OF_ASC_NODE = 26.0887
ARG_OF_PERICENTER = 67.2878
MEAN_ANOMALY   = 102.5294

EPHEMERIS_TYPE = 0
CLASSIFICATION_TYPE = U
NORAD_CAT_ID   = 66931
ELEMENT_SET_NO = 999
REV_AT_EPOCH   = 277
BSTAR          = -.59322584E-2
MEAN_MOTION_DOT = -.128957E-1
MEAN_MOTION_DDOT = 0

CCSDS_OMM_VERS = 2.0
CREATION_DATE  = 
ORIGINATOR     = 

OBJECT_NAME    = STARLINK-36177
OBJECT_ID      = 2025-286H
CENTER_NAME    = EARTH
REF_FRAME      = TEME
TIME_SYSTEM    = UTC
MEAN_ELEMENT_THEORY = SGP/SGP4

EPOCH          = 2025-12-17T14:00:03.000384
MEAN_MOTION    = 15.85560095
ECCENTRICITY   = .00009591
INCLINATION    = 53.1561
RA_OF_ASC_NODE = 26.0840
ARG_OF_PERICENTER = 62.5076
MEAN_ANOMALY   = 109.5308

EPHEMERIS_TYPE = 0
CLASSIFICATION_TYPE = U
NORAD_CAT_ID   = 66932
ELEMENT_SET_NO = 999
REV_AT_EPOCH   = 277
BSTAR          = -.59639392E-2
MEAN_MOTION_DOT = -.12964E-1
MEAN_MOTION_DDOT = 0

