HULIANWANG DIGUI-111    
1 66921U 25285G   25351.67721130 -.00000174  00000+0 -14381-4 0  9993
2 66921  50.0128  97.0966 0006692 313.3114  46.7232 14.03630834  1601
HULIANWANG DIGUI-112    
1 66922U 25285H   25351.60506569 -.00000147  00000+0  27480-5 0  9998
2 66922  50.0138  97.3497 0006674 324.7337  35.3126 14.03790869  1597
HULIANWANG DIGUI-113    
1 66923U 25285J   25351.67538833 -.00000016  00000+0  85151-4 0  9998
2 66923  50.0098  97.0805 0005229 313.3794  46.6674 14.04002193  1601
CZ-8A R/B               
1 66924U 25285K   25351.55127051 -.00000018  00000+0  52604-4 0  9991
2 66924  50.0072  95.6730 0119280 123.7086 237.5268 14.30503728  1615
STARLINK-35945          
1 66925U 25286A   25351.58336806 -.01180882  00000+0 -54127-2 0  9996
2 66925  53.1564  26.1162 0000938  69.8031  86.9100 15.85391992  2771
STARLINK-35942          
1 66926U 25286B   25351.58336806 -.01225037  00000+0 -56260-2 0  9999
2 66926  53.1563  26.1065 0000802  71.4394  89.8465 15.85446023  2776
STARLINK-35943          
1 66927U 25286C   25351.58336806 -.01244205  00000+0 -57159-2 0  9996
2 66927  53.1564  26.1024 0000976  65.5485  97.7808 15.85477908  2775
STARLINK-35944          
1 66928U 25286D   25351.58336806 -.01207404  00000+0 -55428-2 0  9994
2 66928  53.1563  26.1108 0000900  68.9564  90.2454 15.85416143  2779
STARLINK-36169          
1 66929U 25286E   25351.58336806 -.01263655  00000+0 -58099-2 0  9992
2 66929  53.1562  26.0976 0001022  65.0733 100.4708 15.85502079  2773
STARLINK-36206          
1 66930U 25286F   25351.58336806 -.01270613  00000+0 -58395-2 0  9995
2 66930  53.1560  26.0932 0001001  62.5395 105.0061 15.85525247  2773
STARLINK-36130          
1 66931U 25286G   25351.58336806 -.01289570  00000+0 -59323-2 0  9990
2 66931  53.1561  26.0887 0000934  67.2878 102.5294 15.85546727  2772
STARLINK-36177          
1 66932U 25286H   25351.58336806 -.01296400  00000+0 -59639-2 0  9991
2 66932  53.1561  26.0840 0000959  62.5076 109.5308 15.85560095  2774
